0 FENGYUN 1C DEB
1 30019U 99025MU  13283.00078356  .00003011  00000-0  12605-2 0  7915
2 30019 098.1592 078.3686 0222369 350.6310 128.6304 14.14268378346752
0 FENGYUN 1C DEB
1 30019U 99025MU  13284.19627979  .00003177  00000-0  13289-2 0  7920
2 30019 098.1589 079.4624 0222317 347.1448 095.3693 14.14272652346928
0 FENGYUN 1C DEB
1 30019U 99025MU  13285.39460462  .00002812  00000-0  11784-2 0  7939
2 30019 098.1586 080.5586 0222308 343.6478 076.5342 14.14279045347093
0 FENGYUN 1C DEB
1 30019U 99025MU  13286.96287764  .00003276  00000-0  13695-2 0  7944
2 30019 098.1584 081.9929 0222314 339.0784 141.2939 14.14286974347319
0 FENGYUN 1C DEB
1 30019U 99025MU  13288.43605841  .00004258  00000-0  17744-2 0  7959
2 30019 098.1588 083.3410 0222267 334.7914 081.9384 14.14299912347521
0 FENGYUN 1C DEB
1 30019U 99025MU  13289.93472994  .00003871  00000-0  16145-2 0  7961
2 30019 098.1591 084.7122 0222238 330.4180 152.4446 14.14308655347737
0 FENGYUN 1C DEB
1 30019U 99025MU  13291.40618785  .00003758  00000-0  15681-2 0  7975
2 30019 098.1595 086.0585 0222197 326.1206 084.4467 14.14318012347942
0 FENGYUN 1C DEB
1 30019U 99025MU  13292.90697803  .00003636  00000-0  15174-2 0  7982
2 30019 098.1595 087.4314 0222178 321.7491 165.8340 14.14327336348150
0 FENGYUN 1C DEB
1 30019U 99025MU  13293.96758946  .00004361  00000-0  18161-2 0  7991
2 30019 098.1598 088.4018 0222213 318.6573 166.0516 14.14334095348306
0 FENGYUN 1C DEB
1 30019U 99025MU  13295.44030568  .00005153  00000-0  21419-2 0  8002
2 30019 098.1599 089.7494 0222210 314.3814 104.5753 14.14344633348519
